[{"OBJECT_NAME":"BANE","OBJECT_ID":"2023-185D","EPOCH":"2026-03-09T22:38:54.916224","MEAN_MOTION":15.6846319,"ECCENTRICITY":0.00050193,"INCLINATION":97.3445,"RA_OF_ASC_NODE":151.472,"ARG_OF_PERICENTER":176.385,"MEAN_ANOMALY":183.7448,"EPHEMERIS_TYPE":0,"CLASSIFICATION_TYPE":"U","NORAD_CAT_ID":58465,"ELEMENT_SET_NO":999,"REV_AT_EPOCH":12713,"BSTAR":0.00097597303,"MEAN_MOTION_DOT":0.00111172,"MEAN_MOTION_DDOT":0},{"OBJECT_NAME":"COSMOS 1408 DEB","OBJECT_ID":"1982-092SW","EPOCH":"2026-03-09T18:18:30.050784","MEAN_MOTION":15.71290453,"ECCENTRICITY":0.00149584,"INCLINATION":82.612,"RA_OF_ASC_NODE":337.7981,"ARG_OF_PERICENTER":124.2456,"MEAN_ANOMALY":236.0226,"EPHEMERIS_TYPE":0,"CLASSIFICATION_TYPE":"U","NORAD_CAT_ID":50058,"ELEMENT_SET_NO":999,"REV_AT_EPOCH":24167,"BSTAR":0.00037213581,"MEAN_MOTION_DOT":0.00047626,"MEAN_MOTION_DDOT":0}]
